CTC1_L_00493063-01
1 35428U 26771DT  26037.47806713  .00000000  00000+0  00000-0 0  9998
2 35428 100.6000 148.8000 0000000   0.0000 297.6000 13.03091717    19
CTC1_L_00493063-02
1 35429U 25528WM  26037.47806713  .00000000  00000+0  00000-0 0  9998
2 35429 100.6000 148.8000 0000000   0.0000 117.6000 13.03091717    11
CTC1_L_00493064-01
1 35430U 25288UI  26037.47806713  .00000000  00000+0  00000-0 0  9993
2 35430 100.6000 151.2000 0000000   0.0000 302.4000 13.03091717    15
CTC1_L_00493064-02
1 35431U 23933FX  26037.47806713  .00000000  00000+0  00000-0 0  9999
2 35431 100.6000 151.2000 0000000   0.0000 122.4000 13.03091717    16
CTC1_L_00493065-01
1 35432U 23959EK  26037.47806713  .00000000  00000+0  00000-0 0  9998
2 35432 100.6000 153.6000 0000000   0.0000 307.2000 13.03091717    16
CTC1_L_00493065-02
1 35433U 23274KO  26037.47806713  .00000000  00000+0  00000-0 0  9999
2 35433 100.6000 153.6000 0000000   0.0000 127.2000 13.03091717    17
CTC1_L_00493066-01
1 35434U 22690WT  26037.47806713  .00000000  00000+0  00000-0 0  9991
2 35434 100.6000 156.0000 0000000   0.0000 312.0000 13.03091717    19
CTC1_L_00493066-02
1 35435U 23475KX  26037.47806713  .00000000  00000+0  00000-0 0  9994
2 35435 100.6000 156.0000 0000000   0.0000 132.0000 13.03091717    10
CTC1_L_00493067-01
1 35436U 22364BV  26037.47806713  .00000000  00000+0  00000-0 0  9991
2 35436 100.6000 158.4000 0000000   0.0000 316.8000 13.03091717    19
CTC1_L_00493067-02
1 35437U 25499CZ  26037.47806713  .00000000  00000+0  00000-0 0  9994
2 35437 100.6000 158.4000 0000000   0.0000 136.8000 13.03091717    10
CTC1_L_00493068-01
1 35438U 24644TW  26037.47806713  .00000000  00000+0  00000-0 0  9996
2 35438 100.6000 160.8000 0000000   0.0000 321.6000 13.03091717    12
CTC1_L_00493068-02
1 35439U 22262TI  26037.47806713  .00000000  00000+0  00000-0 0  9991
2 35439 100.6000 160.8000 0000000   0.0000 141.6000 13.03091717    13
CTC1_L_00493069-01
1 35440U 22940UJ  26037.47806713  .00000000  00000+0  00000-0 0  9996
2 35440 100.6000 163.2000 0000000   0.0000 326.4000 13.03091717    15
CTC1_L_00493069-02
1 35441U 26273GG  26037.47806713  .00000000  00000+0  00000-0 0  9990
2 35441 100.6000 163.2000 0000000   0.0000 146.4000 13.03091717    16
CTC1_L_00493070-01
1 35442U 22068NS  26037.47806713  .00000000  00000+0  00000-0 0  9999
2 35442 100.6000 165.6000 0000000   0.0000 331.2000 13.03091717    17
CTC1_L_00493070-02
1 35443U 23468RZ  26037.47806713  .00000000  00000+0  00000-0 0  9995
2 35443 100.6000 165.6000 0000000   0.0000 151.2000 13.03091717    18
CTC1_L_00493071-01
1 35444U 23624NZ  26037.47806713  .00000000  00000+0  00000-0 0  9990
2 35444 100.6000 168.0000 0000000   0.0000 336.0000 13.03091717    19
CTC1_L_00493071-02
1 35445U 24882TA  26037.47806713  .00000000  00000+0  00000-0 0  9998
2 35445 100.6000 168.0000 0000000   0.0000 156.0000 13.03091717    10
CTC1_L_00493072-01
1 35446U 24362NC  26037.47806713  .00000000  00000+0  00000-0 0  9992
2 35446 100.6000 170.4000 0000000   0.0000 340.8000 13.03091717    11
CTC1_L_00493072-02
1 35447U 22328TR  26037.47806713  .00000000  00000+0  00000-0 0  9993
2 35447 100.6000 170.4000 0000000   0.0000 160.8000 13.03091717    12
CTC1_L_00493073-01
1 35448U 25781UP  26037.47806713  .00000000  00000+0  00000-0 0  9990
2 35448 100.6000 172.8000 0000000   0.0000 345.6000 13.03091717    12
CTC1_L_00493073-02
1 35449U 25898YG  26037.47806713  .00000000  00000+0  00000-0 0  9990
2 35449 100.6000 172.8000 0000000   0.0000 165.6000 13.03091717    13
CTC1_L_00493074-01
1 35450U 24162WS  26037.47806713  .00000000  00000+0  00000-0 0  9995
2 35450 100.6000 175.2000 0000000   0.0000 350.4000 13.03091717    16
CTC1_L_00493074-02
1 35451U 24179IR  26037.47806713  .00000000  00000+0  00000-0 0  9994
2 35451 100.6000 175.2000 0000000   0.0000 170.4000 13.03091717    17
CTC1_L_00493075-01
1 35452U 23842KC  26037.47806713  .00000000  00000+0  00000-0 0  9991
2 35452 100.6000 177.6000 0000000   0.0000 355.2000 13.03091717    17
CTC1_L_00493075-02
1 35453U 24127UK  26037.47806713  .00000000  00000+0  00000-0 0  9999
2 35453 100.6000 177.6000 0000000   0.0000 175.2000 13.03091717    18
CTC1_L_00493076-01
1 35454U 23168VQ  26037.47806713  .00000000  00000+0  00000-0 0  9994
2 35454 100.6000 180.0000 0000000   0.0000   0.0000 13.03091717    12
CTC1_L_00493076-02
1 35455U 23721UD  26037.47806713  .00000000  00000+0  00000-0 0  9990
2 35455 100.6000 180.0000 0000000   0.0000 180.0000 13.03091717    12
CTC1_L_00493077-01
1 35456U 22150TN  26037.47806713  .00000000  00000+0  00000-0 0  9996
2 35456 100.6000 182.4000 0000000   0.0000   4.8000 13.03091717    12
CTC1_L_00493077-02
1 35457U 25978NY  26037.47806713  .00000000  00000+0  00000-0 0  9998
2 35457 100.6000 182.4000 0000000   0.0000 184.8000 13.03091717    12
CTC1_L_00493078-01
1 35458U 24800DT  26037.47806713  .00000000  00000+0  00000-0 0  9992
2 35458 100.6000 184.8000 0000000   0.0000   9.6000 13.03091717    13
CTC1_L_00493078-02
1 35459U 26111HT  26037.47806713  .00000000  00000+0  00000-0 0  9990
2 35459 100.6000 184.8000 0000000   0.0000 189.6000 13.03091717    13
CTC1_L_00493079-01
1 35460U 25823AZ  26037.47806713  .00000000  00000+0  00000-0 0  9991
2 35460 100.6000 187.2000 0000000   0.0000  14.4000 13.03091717    17
CTC1_L_00493079-02
1 35461U 23112KW  26037.47806713  .00000000  00000+0  00000-0 0  9991
2 35461 100.6000 187.2000 0000000   0.0000 194.4000 13.03091717    17
CTC1_L_00493080-01
1 35462U 23118HS  26037.47806713  .00000000  00000+0  00000-0 0  9998
2 35462 100.6000 189.6000 0000000   0.0000  19.2000 13.03091717    18
CTC1_L_00493080-02
1 35463U 25177BO  26037.47806713  .00000000  00000+0  00000-0 0  9996
2 35463 100.6000 189.6000 0000000   0.0000 199.2000 13.03091717    18
CTC1_L_00493081-01
1 35464U 25081XH  26037.47806713  .00000000  00000+0  00000-0 0  9991
2 35464 100.6000 192.0000 0000000   0.0000  24.0000 13.03091717    12
CTC1_L_00493081-02
1 35465U 25680MR  26037.47806713  .00000000  00000+0  00000-0 0  9997
2 35465 100.6000 192.0000 0000000   0.0000 204.0000 13.03091717    13
CTC1_L_00493082-01
1 35466U 22920YH  26037.47806713  .00000000  00000+0  00000-0 0  9992
2 35466 100.6000 194.4000 0000000   0.0000  28.8000 13.03091717    12
CTC1_L_00493082-02
1 35467U 26733HJ  26037.47806713  .00000000  00000+0  00000-0 0  9999
2 35467 100.6000 194.4000 0000000   0.0000 208.8000 13.03091717    13
CTC1_L_00493083-01
1 35468U 23322NU  26037.47806713  .00000000  00000+0  00000-0 0  9991
2 35468 100.6000 196.8000 0000000   0.0000  33.6000 13.03091717    14
CTC1_L_00493083-02
1 35469U 26347AZ  26037.47806713  .00000000  00000+0  00000-0 0  9992
2 35469 100.6000 196.8000 0000000   0.0000 213.6000 13.03091717    15
CTC1_L_00493084-01
1 35470U 22047XZ  26037.47806713  .00000000  00000+0  00000-0 0  9997
2 35470 100.6000 199.2000 0000000   0.0000  38.4000 13.03091717    17
CTC1_L_00493084-02
1 35471U 26081MH  26037.47806713  .00000000  00000+0  00000-0 0  9990
2 35471 100.6000 199.2000 0000000   0.0000 218.4000 13.03091717    18
CTC1_L_00493085-01
1 35472U 25473EK  26037.47806713  .00000000  00000+0  00000-0 0  9995
2 35472 100.6000 201.6000 0000000   0.0000  43.2000 13.03091717    11
CTC1_L_00493085-02
1 35473U 23012SU  26037.47806713  .00000000  00000+0  00000-0 0  9993
2 35473 100.6000 201.6000 0000000   0.0000 223.2000 13.03091717    12
CTC1_L_00493086-01
1 35474U 22441HD  26037.47806713  .00000000  00000+0  00000-0 0  9999
2 35474 100.6000 204.0000 0000000   0.0000  48.0000 13.03091717    13
CTC1_L_00493086-02
1 35475U 26889UD  26037.47806713  .00000000  00000+0  00000-0 0  9990
2 35475 100.6000 204.0000 0000000   0.0000 228.0000 13.03091717    14
CTC1_L_00493087-01
1 35476U 24564RT  26037.47806713  .00000000  00000+0  00000-0 0  9999
2 35476 100.6000 206.4000 0000000   0.0000  52.8000 13.03091717    14
CTC1_L_00493087-02
1 35477U 22588OA  26037.47806713  .00000000  00000+0  00000-0 0  9994
2 35477 100.6000 206.4000 0000000   0.0000 232.8000 13.03091717    15
CTC1_L_00493088-01
1 35478U 24637XQ  26037.47806713  .00000000  00000+0  00000-0 0  9992
2 35478 100.6000 208.8000 0000000   0.0000  57.6000 13.03091717    15
CTC1_L_00493088-02
1 35479U 23496SS  26037.47806713  .00000000  00000+0  00000-0 0  9995
2 35479 100.6000 208.8000 0000000   0.0000 237.6000 13.03091717    16
CTC1_L_00493089-01
1 35480U 24461FW  26037.47806713  .00000000  00000+0  00000-0 0  9990
2 35480 100.6000 211.2000 0000000   0.0000  62.4000 13.03091717    10
CTC1_L_00493089-02
1 35481U 26706FD  26037.47806713  .00000000  00000+0  00000-0 0  9995
2 35481 100.6000 211.2000 0000000   0.0000 242.4000 13.03091717    11
CTC1_L_00493090-01
1 35482U 25931NT  26037.47806713  .00000000  00000+0  00000-0 0  9995
2 35482 100.6000 213.6000 0000000   0.0000  67.2000 13.03091717    11
CTC1_L_00493090-02
1 35483U 26431LE  26037.47806713  .00000000  00000+0  00000-0 0  9992
2 35483 100.6000 213.6000 0000000   0.0000 247.2000 13.03091717    12
CTC1_L_00493091-01
1 35484U 25585QB  26037.47806713  .00000000  00000+0  00000-0 0  9992
2 35484 100.6000 216.0000 0000000   0.0000  72.0000 13.03091717    14
CTC1_L_00493091-02
1 35485U 22488DO  26037.47806713  .00000000  00000+0  00000-0 0  9992
2 35485 100.6000 216.0000 0000000   0.0000 252.0000 13.03091717    15
CTC1_L_00493092-01
1 35486U 22420KL  26037.47806713  .00000000  00000+0  00000-0 0  9999
2 35486 100.6000 218.4000 0000000   0.0000  76.8000 13.03091717    14
CTC1_L_00493092-02
1 35487U 24238XE  26037.47806713  .00000000  00000+0  00000-0 0  9999
2 35487 100.6000 218.4000 0000000   0.0000 256.8000 13.03091717    15
CTC1_L_00493093-01
1 35488U 23718RQ  26037.47806713  .00000000  00000+0  00000-0 0  9992
2 35488 100.6000 220.8000 0000000   0.0000  81.6000 13.03091717    17
CTC1_L_00493093-02
1 35489U 23552GK  26037.47806713  .00000000  00000+0  00000-0 0  9999
2 35489 100.6000 220.8000 0000000   0.0000 261.6000 13.03091717    18
